CCSDS_OMM_VERS = 2.0
CREATION_DATE  = 
ORIGINATOR     = 

OBJECT_NAME    = STARLINK-36348
OBJECT_ID      = 2026-034B
CENTER_NAME    = EARTH
REF_FRAME      = TEME
TIME_SYSTEM    = UTC
MEAN_ELEMENT_THEORY = SGP/SGP4

EPOCH          = 2026-03-17T18:14:02.898528
MEAN_MOTION    = 15.80893524
ECCENTRICITY   = .00010687
INCLINATION    = 53.1587
RA_OF_ASC_NODE = 170.9037
ARG_OF_PERICENTER = 87.7609
MEAN_ANOMALY   = 272.3536

EPHEMERIS_TYPE = 0
CLASSIFICATION_TYPE = U
NORAD_CAT_ID   = 67851
ELEMENT_SET_NO = 999
REV_AT_EPOCH   = 521
BSTAR          = .13162336E-2
MEAN_MOTION_DOT = .267546E-2
MEAN_MOTION_DDOT = 0

CCSDS_OMM_VERS = 2.0
CREATION_DATE  = 
ORIGINATOR     = 

OBJECT_NAME    = STARLINK-36276
OBJECT_ID      = 2026-034C
CENTER_NAME    = EARTH
REF_FRAME      = TEME
TIME_SYSTEM    = UTC
MEAN_ELEMENT_THEORY = SGP/SGP4

EPOCH          = 2026-03-18T12:24:18.813024
MEAN_MOTION    = 15.82301433
ECCENTRICITY   = .0006975
INCLINATION    = 53.1582
RA_OF_ASC_NODE = 167.0924
ARG_OF_PERICENTER = 213.8100
MEAN_ANOMALY   = 146.2479

EPHEMERIS_TYPE = 0
CLASSIFICATION_TYPE = U
NORAD_CAT_ID   = 67852
ELEMENT_SET_NO = 999
REV_AT_EPOCH   = 533
BSTAR          = .21004E-2
MEAN_MOTION_DOT = .46733E-2
MEAN_MOTION_DDOT = 0

CCSDS_OMM_VERS = 2.0
CREATION_DATE  = 
ORIGINATOR     = 

OBJECT_NAME    = STARLINK-36785
OBJECT_ID      = 2026-034D
CENTER_NAME    = EARTH
REF_FRAME      = TEME
TIME_SYSTEM    = UTC
MEAN_ELEMENT_THEORY = SGP/SGP4

EPOCH          = 2026-03-17T16:40:51.030048
MEAN_MOTION    = 15.81105538
ECCENTRICITY   = .00009289
INCLINATION    = 53.1583
RA_OF_ASC_NODE = 171.2112
ARG_OF_PERICENTER = 181.8459
MEAN_ANOMALY   = 178.2560

EPHEMERIS_TYPE = 0
CLASSIFICATION_TYPE = U
NORAD_CAT_ID   = 67853
ELEMENT_SET_NO = 999
REV_AT_EPOCH   = 520
BSTAR          = .18620649E-2
MEAN_MOTION_DOT = .387956E-2
MEAN_MOTION_DDOT = 0

CCSDS_OMM_VERS = 2.0
CREATION_DATE  = 
ORIGINATOR     = 

OBJECT_NAME    = STARLINK-36608
OBJECT_ID      = 2026-034E
CENTER_NAME    = EARTH
REF_FRAME      = TEME
TIME_SYSTEM    = UTC
MEAN_ELEMENT_THEORY = SGP/SGP4

EPOCH          = 2026-03-18T12:23:14.006976
MEAN_MOTION    = 15.81149649
ECCENTRICITY   = .0002089
INCLINATION    = 53.1564
RA_OF_ASC_NODE = 167.0867
ARG_OF_PERICENTER = 140.1703
MEAN_ANOMALY   = 219.9474

EPHEMERIS_TYPE = 0
CLASSIFICATION_TYPE = U
NORAD_CAT_ID   = 67854
ELEMENT_SET_NO = 999
REV_AT_EPOCH   = 532
BSTAR          = .19211E-2
MEAN_MOTION_DOT = .401726E-2
MEAN_MOTION_DDOT = 0

CCSDS_OMM_VERS = 2.0
CREATION_DATE  = 
ORIGINATOR     = 

OBJECT_NAME    = STARLINK-36838
OBJECT_ID      = 2026-034F
CENTER_NAME    = EARTH
REF_FRAME      = TEME
TIME_SYSTEM    = UTC
MEAN_ELEMENT_THEORY = SGP/SGP4

EPOCH          = 2026-03-18T12:22:09.242400
MEAN_MOTION    = 15.81196394
ECCENTRICITY   = .0002644
INCLINATION    = 53.1567
RA_OF_ASC_NODE = 167.0810
ARG_OF_PERICENTER = 121.7489
MEAN_ANOMALY   = 238.3792

EPHEMERIS_TYPE = 0
CLASSIFICATION_TYPE = U
NORAD_CAT_ID   = 67855
ELEMENT_SET_NO = 999
REV_AT_EPOCH   = 533
BSTAR          = .22231E-2
MEAN_MOTION_DOT = .46972E-2
MEAN_MOTION_DDOT = 0

CCSDS_OMM_VERS = 2.0
CREATION_DATE  = 
ORIGINATOR     = 

OBJECT_NAME    = STARLINK-36843
OBJECT_ID      = 2026-034G
CENTER_NAME    = EARTH
REF_FRAME      = TEME
TIME_SYSTEM    = UTC
MEAN_ELEMENT_THEORY = SGP/SGP4

EPOCH          = 2026-03-18T12:19:59.718432
MEAN_MOTION    = 15.81188047
ECCENTRICITY   = .0001252
INCLINATION    = 53.1577
RA_OF_ASC_NODE = 167.0716
ARG_OF_PERICENTER = 128.6372
MEAN_ANOMALY   = 231.4763

EPHEMERIS_TYPE = 0
CLASSIFICATION_TYPE = U
NORAD_CAT_ID   = 67856
ELEMENT_SET_NO = 999
REV_AT_EPOCH   = 533
BSTAR          = .18857E-2
MEAN_MOTION_DOT = .394693E-2
MEAN_MOTION_DDOT = 0

CCSDS_OMM_VERS = 2.0
CREATION_DATE  = 
ORIGINATOR     = 

OBJECT_NAME    = STARLINK-36828
OBJECT_ID      = 2026-034H
CENTER_NAME    = EARTH
REF_FRAME      = TEME
TIME_SYSTEM    = UTC
MEAN_ELEMENT_THEORY = SGP/SGP4

EPOCH          = 2026-03-18T12:21:04.378464
MEAN_MOTION    = 15.80986007
ECCENTRICITY   = .0001143
INCLINATION    = 53.1591
RA_OF_ASC_NODE = 167.0766
ARG_OF_PERICENTER = 116.2402
MEAN_ANOMALY   = 243.8738

EPHEMERIS_TYPE = 0
CLASSIFICATION_TYPE = U
NORAD_CAT_ID   = 67857
ELEMENT_SET_NO = 999
REV_AT_EPOCH   = 533
BSTAR          = .13798E-2
MEAN_MOTION_DOT = .282173E-2
MEAN_MOTION_DDOT = 0

CCSDS_OMM_VERS = 2.0
CREATION_DATE  = 
ORIGINATOR     = 

OBJECT_NAME    = STARLINK-36837
OBJECT_ID      = 2026-034J
CENTER_NAME    = EARTH
REF_FRAME      = TEME
TIME_SYSTEM    = UTC
MEAN_ELEMENT_THEORY = SGP/SGP4

EPOCH          = 2026-03-18T12:18:54.817344
MEAN_MOTION    = 15.81162989
ECCENTRICITY   = .000061
INCLINATION    = 53.1579
RA_OF_ASC_NODE = 167.0680
ARG_OF_PERICENTER = 141.3966
MEAN_ANOMALY   = 218.7100

EPHEMERIS_TYPE = 0
CLASSIFICATION_TYPE = U
NORAD_CAT_ID   = 67858
ELEMENT_SET_NO = 999
REV_AT_EPOCH   = 533
BSTAR          = .19116E-2
MEAN_MOTION_DOT = .399924E-2
MEAN_MOTION_DDOT = 0

CCSDS_OMM_VERS = 2.0
CREATION_DATE  = 
ORIGINATOR     = 

OBJECT_NAME    = STARLINK-36393
OBJECT_ID      = 2026-034K
CENTER_NAME    = EARTH
REF_FRAME      = TEME
TIME_SYSTEM    = UTC
MEAN_ELEMENT_THEORY = SGP/SGP4

EPOCH          = 2026-03-18T12:17:49.791840
MEAN_MOTION    = 15.80963122
ECCENTRICITY   = .0001494
INCLINATION    = 53.1594
RA_OF_ASC_NODE = 167.0611
ARG_OF_PERICENTER = 93.5064
MEAN_ANOMALY   = 266.6130

EPHEMERIS_TYPE = 0
CLASSIFICATION_TYPE = U
NORAD_CAT_ID   = 67859
ELEMENT_SET_NO = 999
REV_AT_EPOCH   = 533
BSTAR          = .11871E-2
MEAN_MOTION_DOT = .24125E-2
MEAN_MOTION_DDOT = 0

CCSDS_OMM_VERS = 2.0
CREATION_DATE  = 
ORIGINATOR     = 

OBJECT_NAME    = STARLINK-35873
OBJECT_ID      = 2026-034L
CENTER_NAME    = EARTH
REF_FRAME      = TEME
TIME_SYSTEM    = UTC
MEAN_ELEMENT_THEORY = SGP/SGP4

EPOCH          = 2026-03-18T12:16:45.235488
MEAN_MOTION    = 15.80901242
ECCENTRICITY   = .0001136
INCLINATION    = 53.1584
RA_OF_ASC_NODE = 167.0563
ARG_OF_PERICENTER = 73.9949
MEAN_ANOMALY   = 286.1199

EPHEMERIS_TYPE = 0
CLASSIFICATION_TYPE = U
NORAD_CAT_ID   = 67860
ELEMENT_SET_NO = 999
REV_AT_EPOCH   = 536
BSTAR          = .13303E-2
MEAN_MOTION_DOT = .270611E-2
MEAN_MOTION_DDOT = 0

CCSDS_OMM_VERS = 2.0
CREATION_DATE  = 
ORIGINATOR     = 

OBJECT_NAME    = STARLINK-36325
OBJECT_ID      = 2026-034M
CENTER_NAME    = EARTH
REF_FRAME      = TEME
TIME_SYSTEM    = UTC
MEAN_ELEMENT_THEORY = SGP/SGP4

EPOCH          = 2026-03-18T12:15:40.400928
MEAN_MOTION    = 15.80949715
ECCENTRICITY   = .00019
INCLINATION    = 53.1580
RA_OF_ASC_NODE = 167.0506
ARG_OF_PERICENTER = 121.6670
MEAN_ANOMALY   = 238.4538

EPHEMERIS_TYPE = 0
CLASSIFICATION_TYPE = U
NORAD_CAT_ID   = 67861
ELEMENT_SET_NO = 999
REV_AT_EPOCH   = 533
BSTAR          = .12006E-2
MEAN_MOTION_DOT = .243944E-2
MEAN_MOTION_DDOT = 0

CCSDS_OMM_VERS = 2.0
CREATION_DATE  = 
ORIGINATOR     = 

OBJECT_NAME    = STARLINK-36332
OBJECT_ID      = 2026-034N
CENTER_NAME    = EARTH
REF_FRAME      = TEME
TIME_SYSTEM    = UTC
MEAN_ELEMENT_THEORY = SGP/SGP4

EPOCH          = 2026-03-18T12:14:35.643264
MEAN_MOTION    = 15.81163080
ECCENTRICITY   = .0002245
INCLINATION    = 53.1582
RA_OF_ASC_NODE = 167.0454
ARG_OF_PERICENTER = 139.7616
MEAN_ANOMALY   = 220.3574

EPHEMERIS_TYPE = 0
CLASSIFICATION_TYPE = U
NORAD_CAT_ID   = 67862
ELEMENT_SET_NO = 999
REV_AT_EPOCH   = 533
BSTAR          = .18262E-2
MEAN_MOTION_DOT = .381165E-2
MEAN_MOTION_DDOT = 0

CCSDS_OMM_VERS = 2.0
CREATION_DATE  = 
ORIGINATOR     = 

OBJECT_NAME    = STARLINK-36835
OBJECT_ID      = 2026-034P
CENTER_NAME    = EARTH
REF_FRAME      = TEME
TIME_SYSTEM    = UTC
MEAN_ELEMENT_THEORY = SGP/SGP4

EPOCH          = 2026-03-18T12:13:30.731808
MEAN_MOTION    = 15.81147580
ECCENTRICITY   = .0002466
INCLINATION    = 53.1587
RA_OF_ASC_NODE = 167.0397
ARG_OF_PERICENTER = 130.8042
MEAN_ANOMALY   = 229.3195

EPHEMERIS_TYPE = 0
CLASSIFICATION_TYPE = U
NORAD_CAT_ID   = 67863
ELEMENT_SET_NO = 999
REV_AT_EPOCH   = 533
BSTAR          = .1792E-2
MEAN_MOTION_DOT = .373406E-2
MEAN_MOTION_DDOT = 0

CCSDS_OMM_VERS = 2.0
CREATION_DATE  = 
ORIGINATOR     = 

OBJECT_NAME    = STARLINK-36831
OBJECT_ID      = 2026-034Q
CENTER_NAME    = EARTH
REF_FRAME      = TEME
TIME_SYSTEM    = UTC
MEAN_ELEMENT_THEORY = SGP/SGP4

EPOCH          = 2026-03-18T12:12:26.028576
MEAN_MOTION    = 15.80909759
ECCENTRICITY   = .0002057
INCLINATION    = 53.1584
RA_OF_ASC_NODE = 167.0359
ARG_OF_PERICENTER = 83.3134
MEAN_ANOMALY   = 276.8123

EPHEMERIS_TYPE = 0
CLASSIFICATION_TYPE = U
NORAD_CAT_ID   = 67864
ELEMENT_SET_NO = 999
REV_AT_EPOCH   = 533
BSTAR          = .14804E-2
MEAN_MOTION_DOT = .302459E-2
MEAN_MOTION_DDOT = 0

CCSDS_OMM_VERS = 2.0
CREATION_DATE  = 
ORIGINATOR     = 

OBJECT_NAME    = STARLINK-36738
OBJECT_ID      = 2026-034R
CENTER_NAME    = EARTH
REF_FRAME      = TEME
TIME_SYSTEM    = UTC
MEAN_ELEMENT_THEORY = SGP/SGP4

EPOCH          = 2026-03-18T12:11:21.189696
MEAN_MOTION    = 15.81129200
ECCENTRICITY   = .00017
INCLINATION    = 53.1613
RA_OF_ASC_NODE = 167.0299
ARG_OF_PERICENTER = 184.6708
MEAN_ANOMALY   = 175.4299

EPHEMERIS_TYPE = 0
CLASSIFICATION_TYPE = U
NORAD_CAT_ID   = 67865
ELEMENT_SET_NO = 999
REV_AT_EPOCH   = 533
BSTAR          = .18839E-2
MEAN_MOTION_DOT = .393158E-2
MEAN_MOTION_DDOT = 0

